OBJECT_NAME,OBJECT_ID,EPOCH,MEAN_MOTION,ECCENTRICITY,INCLINATION,RA_OF_ASC_NODE,ARG_OF_PERICENTER,MEAN_ANOMALY,EPHEMERIS_TYPE,CLASSIFICATION_TYPE,NORAD_CAT_ID,ELEMENT_SET_NO,REV_AT_EPOCH,BSTAR,MEAN_MOTION_DOT,MEAN_MOTION_DDOT
STARLINK-3549,2022-022AR,2026-07-15T05:36:19.409472,15.35419002,.00013468,53.1621,141.8475,78.6109,281.5045,0,U,51891,999,24261,.85768026E-4,.2614E-4,0
STARLINK-3587,2022-022AS,2026-07-15T20:00:01.999008,15.34382766,.0001154,53.1609,139.7133,81.9463,329.6407,0,U,51892,999,584,.93259E-3,.31247E-3,0
STARLINK-3579,2022-022AT,2026-07-15T06:56:40.143264,15.10243531,.00025675,53.2153,146.0314,69.7594,290.3675,0,U,51893,999,24257,.58595571E-3,.9413E-4,0
STARLINK-3595,2022-022AU,2026-07-15T07:01:07.549536,15.34388259,.00012342,53.1613,142.2484,94.1679,265.9465,0,U,51894,999,24262,.30927149E-4,.668E-5,0
STARLINK-3594,2022-022AV,2026-07-15T05:15:13.590720,15.34394889,.00013385,53.1632,142.5787,94.2418,265.8738,0,U,51895,999,24255,.30506225E-4,.654E-5,0
STARLINK-3593,2022-022AW,2026-07-15T02:11:46.171968,15.33550484,.00015411,53.1619,144.5954,82.3767,277.7411,0,U,51896,999,24256,.43130592E-4,.1046E-4,0
STARLINK-3598,2022-022AX,2026-07-15T06:51:55.939104,15.34390043,.00012773,53.1628,141.6206,85.3452,274.7696,0,U,51897,999,24257,.34393851E-4,.786E-5,0
STARLINK-3597,2022-022AY,2026-07-15T06:42:51.354720,15.34375654,.00011391,53.1623,141.6231,105.2239,254.8889,0,U,51898,999,24262,.10729847E-3,.3248E-4,0
STARLINK-3700,2022-025A,2026-07-15T19:48:57.883680,15.31696954,.0001392,53.1589,137.4486,88.0141,272.1020,0,U,51956,999,24080,.62454E-5,-.171E-5,0
STARLINK-3694,2022-025B,2026-07-15T07:11:14.100864,15.31711949,.00012724,53.1596,163.1169,74.8860,285.2282,0,U,51957,999,24038,-.52940813E-4,-.2008E-4,0
STARLINK-3692,2022-025C,2026-07-15T05:29:54.060288,15.31770529,.00035053,53.1596,140.1343,60.0499,300.0850,0,U,51958,999,24071,-.45910293E-3,-.1462E-3,0
STARLINK-3704,2022-025D,2026-07-15T07:05:36.137760,15.31703200,.00014126,53.1595,163.7074,80.7490,279.3671,0,U,51959,999,24037,-.3060284E-5,-.46E-5,0
STARLINK-3691,2022-025E,2026-07-15T08:18:19.310112,15.31701291,.00012162,53.1592,162.7129,88.5775,271.5366,0,U,51960,999,24039,.23708663E-4,.371E-5,0
STARLINK-3697,2022-025G,2026-07-15T08:13:59.432736,15.31703668,.00012941,53.1597,150.3392,93.9378,266.1772,0,U,51962,999,24057,.38936316E-4,.843E-5,0
STARLINK-3675,2022-025H,2026-07-15T06:57:07.621056,15.31702976,.00013208,53.1592,139.8511,87.6828,272.4325,0,U,51963,999,24072,.16505668E-4,.147E-5,0
STARLINK-3690,2022-025J,2026-07-15T06:19:54.126624,15.31700152,.00012382,53.1591,150.6971,87.0107,273.1036,0,U,51964,999,24056,.53642747E-4,.13E-4,0
STARLINK-3696,2022-025K,2026-07-15T07:58:17.689152,15.31702489,.00013539,53.1589,163.3246,93.8166,266.2991,0,U,51965,999,24038,.18725134E-4,.216E-5,0
STARLINK-3699,2022-025L,2026-07-15T07:44:49.315200,15.31702724,.00011535,53.1600,163.1218,103.9839,256.1291,0,U,51966,999,24038,.36867045E-4,.779E-5,0
STARLINK-3681,2022-025N,2026-07-15T06:06:29.745216,15.31638795,.00018407,53.1603,150.7401,90.4149,269.7063,0,U,51968,999,24056,.47374522E-3,.14336E-3,0
STARLINK-3680,2022-025P,2026-07-15T06:26:37.065984,15.31701796,.00015104,53.1596,150.7185,82.0608,278.0565,0,U,51969,999,24055,.15482864E-4,.115E-5,0
STARLINK-3677,2022-025Q,2026-07-15T06:58:56.146368,15.31602950,.00020027,53.1616,163.7579,85.9818,274.1412,0,U,51970,999,24037,.67109758E-3,.20454E-3,0
STARLINK-3669,2022-025R,2026-07-15T08:20:44.500992,15.31701872,.00013571,53.1603,150.5134,80.5740,279.5415,0,U,51971,999,24057,.13429982E-4,.52E-6,0
STARLINK-3671,2022-025S,2026-07-15T03:30:50.157504,15.31702854,.00012245,53.1617,164.3787,95.8854,264.2287,0,U,51972,999,24035,.76626E-5,-.127E-5,0
STARLINK-3679,2022-025T,2026-07-15T07:31:23.719872,15.31701000,.00013392,53.1606,163.1429,93.3223,266.7932,0,U,51973,999,24038,.8691406E-5,-.95E-6,0
STARLINK-3672,2022-025U,2026-07-15T07:38:09.081024,15.31703515,.00013153,53.1616,163.3513,89.8635,270.2517,0,U,51974,999,24037,-.11588928E-4,-.725E-5,0
STARLINK-3674,2022-025V,2026-07-15T06:13:05.667168,15.31699307,.00011137,53.1588,150.2508,85.8520,274.2609,0,U,51975,999,24057,-.3087768E-5,-.461E-5,0
STARLINK-3660,2022-025X,2026-07-15T09:03:31.450176,15.29349966,.0001313,53.1613,163.3672,80.1877,279.9272,0,U,51977,999,24064,.14635862E-4,.66E-6,0
STARLINK-3649,2022-025AA,2026-07-15T09:03:53.516736,15.08832713,.00011485,53.1597,185.6412,78.7391,281.3729,0,U,51980,999,24033,-.7949096E-5,-.414E-5,0
STARLINK-3635,2022-025AB,2026-07-15T06:14:19.210848,15.08835910,.00013002,53.1597,186.1708,71.4634,288.6499,0,U,51981,999,24031,-.30535298E-4,-.774E-5,0
STARLINK-3655,2022-025AD,2026-07-15T09:19:47.869536,15.08836680,.00012296,53.1602,185.5976,75.8613,284.2515,0,U,51983,999,24033,.28748659E-4,.17E-5,0
