STARLINK-3549           
1 51891U 22022AR  26196.23355798  .00002614  00000+0  85768-4 0  9998
2 51891  53.1621 141.8475 0001346  78.6109 281.5045 15.35419002242619
STARLINK-3587           
1 51892U 22022AS  26196.83335647  .00031247  00000+0  93259-3 0  9993
2 51892  53.1609 139.7133 0001154  81.9463 329.6407 15.34382766  5843
STARLINK-3579           
1 51893U 22022AT  26196.28935351  .00009413  00000+0  58596-3 0  9996
2 51893  53.2153 146.0314 0002567  69.7594 290.3675 15.10243531242573
STARLINK-3595           
1 51894U 22022AU  26196.29244849  .00000668  00000+0  30927-4 0  9995
2 51894  53.1613 142.2484 0001234  94.1679 265.9465 15.34388259242620
STARLINK-3594           
1 51895U 22022AV  26196.21890730  .00000654  00000+0  30506-4 0  9992
2 51895  53.1632 142.5787 0001338  94.2418 265.8738 15.34394889242558
STARLINK-3593           
1 51896U 22022AW  26196.09150662  .00001046  00000+0  43131-4 0  9996
2 51896  53.1619 144.5954 0001541  82.3767 277.7411 15.33550484242568
STARLINK-3598           
1 51897U 22022AX  26196.28606411  .00000786  00000+0  34394-4 0  9997
2 51897  53.1628 141.6206 0001277  85.3452 274.7696 15.34390043242574
STARLINK-3597           
1 51898U 22022AY  26196.27976105  .00003248  00000+0  10730-3 0  9990
2 51898  53.1623 141.6231 0001139 105.2239 254.8889 15.34375654242620
STARLINK-3700           
1 51956U 22025A   26196.82566995 -.00000171  00000+0  62454-5 0  9996
2 51956  53.1589 137.4486 0001392  88.0141 272.1020 15.31696954240806
STARLINK-3694           
1 51957U 22025B   26196.29946876 -.00002008  00000+0 -52941-4 0  9999
2 51957  53.1596 163.1169 0001272  74.8860 285.2282 15.31711949240387
STARLINK-3692           
1 51958U 22025C   26196.22909792 -.00014620  00000+0 -45910-3 0  9999
2 51958  53.1596 140.1343 0003505  60.0499 300.0850 15.31770529240716
STARLINK-3704           
1 51959U 22025D   26196.29555715 -.00000460  00000+0 -30603-5 0  9991
2 51959  53.1595 163.7074 0001412  80.7490 279.3671 15.31703200240376
STARLINK-3691           
1 51960U 22025E   26196.34605683  .00000371  00000+0  23709-4 0  9996
2 51960  53.1592 162.7129 0001216  88.5775 271.5366 15.31701291240394
STARLINK-3697           
1 51962U 22025G   26196.34304899  .00000843  00000+0  38936-4 0  9995
2 51962  53.1597 150.3392 0001294  93.9378 266.1772 15.31703668240572
STARLINK-3675           
1 51963U 22025H   26196.28967154  .00000147  00000+0  16506-4 0  9994
2 51963  53.1592 139.8511 0001320  87.6828 272.4325 15.31702976240725
STARLINK-3690           
1 51964U 22025J   26196.26382091  .00001300  00000+0  53643-4 0  9999
2 51964  53.1591 150.6971 0001238  87.0107 273.1036 15.31700152240561
STARLINK-3696           
1 51965U 22025K   26196.33214918  .00000216  00000+0  18725-4 0  9997
2 51965  53.1589 163.3246 0001353  93.8166 266.2991 15.31702489240381
STARLINK-3699           
1 51966U 22025L   26196.32279300  .00000779  00000+0  36867-4 0  9994
2 51966  53.1600 163.1218 0001153 103.9839 256.1291 15.31702724240384
STARLINK-3681           
1 51968U 22025N   26196.25451094  .00014336  00000+0  47375-3 0  9999
2 51968  53.1603 150.7401 0001840  90.4149 269.7063 15.31638795240565
STARLINK-3680           
1 51969U 22025P   26196.26848456  .00000115  00000+0  15483-4 0  9999
2 51969  53.1596 150.7185 0001510  82.0608 278.0565 15.31701796240558
STARLINK-3677           
1 51970U 22025Q   26196.29092762  .00020454  00000+0  67110-3 0  9996
2 51970  53.1616 163.7579 0002002  85.9818 274.1412 15.31602950240376
STARLINK-3669           
1 51971U 22025R   26196.34773728  .00000052  00000+0  13430-4 0  9990
2 51971  53.1603 150.5134 0001357  80.5740 279.5415 15.31701872240578
STARLINK-3671           
1 51972U 22025S   26196.14641386 -.00000127  00000+0  76626-5 0  9994
2 51972  53.1617 164.3787 0001224  95.8854 264.2287 15.31702854240354
STARLINK-3679           
1 51973U 22025T   26196.31346898 -.00000095  00000+0  86914-5 0  9999
2 51973  53.1606 163.1429 0001339  93.3223 266.7932 15.31701000240382
STARLINK-3672           
1 51974U 22025U   26196.31816066 -.00000725  00000+0 -11589-4 0  9995
2 51974  53.1616 163.3513 0001315  89.8635 270.2517 15.31703515240372
STARLINK-3674           
1 51975U 22025V   26196.25909337 -.00000461  00000+0 -30878-5 0  9993
2 51975  53.1588 150.2508 0001113  85.8520 274.2609 15.31699307240576
STARLINK-3660           
1 51977U 22025X   26196.37744734  .00000066  00000+0  14636-4 0  9998
2 51977  53.1613 163.3672 0001313  80.1877 279.9272 15.29349966240645
STARLINK-3649           
1 51980U 22025AA  26196.37770274 -.00000414  00000+0 -79491-5 0  9990
2 51980  53.1597 185.6412 0001148  78.7391 281.3729 15.08832713240333
STARLINK-3635           
1 51981U 22025AB  26196.25994457 -.00000774  00000+0 -30535-4 0  9993
2 51981  53.1597 186.1708 0001300  71.4634 288.6499 15.08835910240312
STARLINK-3655           
1 51983U 22025AD  26196.38874849  .00000170  00000+0  28749-4 0  9993
2 51983  53.1602 185.5976 0001229  75.8613 284.2515 15.08836680240334
